[{"OBJECT_NAME":"GONETS-M 5","OBJECT_ID":"2013-048A","EPOCH":"2026-03-09T22:37:43.858272","MEAN_MOTION":12.42888303,"ECCENTRICITY":0.00178145,"INCLINATION":82.4815,"RA_OF_ASC_NODE":45.2425,"ARG_OF_PERICENTER":69.9431,"MEAN_ANOMALY":290.3565,"EPHEMERIS_TYPE":0,"CLASSIFICATION_TYPE":"U","NORAD_CAT_ID":39249,"ELEMENT_SET_NO":999,"REV_AT_EPOCH":56655,"BSTAR":2.7563554e-5,"MEAN_MOTION_DOT":1.4e-7,"MEAN_MOTION_DDOT":0},{"OBJECT_NAME":"COSMOS 413","OBJECT_ID":"1971-041C","EPOCH":"2026-03-09T22:57:57.288384","MEAN_MOTION":12.4385216,"ECCENTRICITY":0.00215946,"INCLINATION":74.0159,"RA_OF_ASC_NODE":38.0074,"ARG_OF_PERICENTER":342.2041,"MEAN_ANOMALY":74.9584,"EPHEMERIS_TYPE":0,"CLASSIFICATION_TYPE":"U","NORAD_CAT_ID":5212,"ELEMENT_SET_NO":999,"REV_AT_EPOCH":49013,"BSTAR":5.5868353e-5,"MEAN_MOTION_DOT":-8.0e-8,"MEAN_MOTION_DDOT":0}]
